{
"type": "FeatureCollection",
"name": "gangnam_habitual_icing_segments",
"crs": { "type": "name", "properties": { "name": "urn:ogc:def:crs:OGC:1.3:CRS84" } },
"features": [
{ "type": "Feature", "properties": { "구간번호": "11001-33", "관리청": "서울특별시(시설공단)", "도로분류": "시도", "대표지역": "서울특별시 강남구", "도로(노선)명": "올림픽대로", "총길이(km)": 2.0, "기점 위도(WGS84(4326))": 37.53232331, "기점 경도(WGS84(4326))": 127.0362551, "종점 위도(WGS84(4326))": 37.52351898, "종점 경도(WGS84(4326))": 127.0591106, "정북기준 도로방향 각도(x1)": -0.022855448, "정북기준 도로방향 각도(y1)": 0.008804335, "정북기준 도로방향 각도(기점 기준십진수 방위각)": 158.9324059 }, "geometry": { "type": "LineString", "coordinates": [ [ 127.0362551, 37.53232331 ], [ 127.0591106, 37.52351898 ] ] } },
{ "type": "Feature", "properties": { "구간번호": "11001-27", "관리청": "서울특별시(시설공단)", "도로분류": "시도", "대표지역": "서울특별시 강남구", "도로(노선)명": "언주로", "총길이(km)": 0.4, "기점 위도(WGS84(4326))": 37.47609267, "기점 경도(WGS84(4326))": 127.0595779, "종점 위도(WGS84(4326))": 37.47430468, "종점 경도(WGS84(4326))": 127.0604157, "정북기준 도로방향 각도(x1)": -0.000837755, "정북기준 도로방향 각도(y1)": 0.001787988, "정북기준 도로방향 각도(기점 기준십진수 방위각)": 115.1052586 }, "geometry": { "type": "LineString", "coordinates": [ [ 127.0595779, 37.47609267 ], [ 127.0604157, 37.47430468 ] ] } },
{ "type": "Feature", "properties": { "구간번호": "11001-24", "관리청": "서울특별시(시설공단)", "도로분류": "시도", "대표지역": "서울특별시 강남구", "도로(노선)명": "동부간선도로", "총길이(km)": 0.3, "기점 위도(WGS84(4326))": 37.52260603, "기점 경도(WGS84(4326))": 127.062287, "종점 위도(WGS84(4326))": 37.51921271, "종점 경도(WGS84(4326))": 127.0652111, "정북기준 도로방향 각도(x1)": -0.002924173, "정북기준 도로방향 각도(y1)": 0.003393323, "정북기준 도로방향 각도(기점 기준십진수 방위각)": 130.7528945 }, "geometry": { "type": "LineString", "coordinates": [ [ 127.062287, 37.52260603 ], [ 127.0652111, 37.51921271 ] ] } },
{ "type": "Feature", "properties": { "구간번호": "11680-27", "관리청": "서울특별시(강남구)", "도로분류": "구도", "대표지역": "서울특별시 강남구", "도로(노선)명": "광평로34길", "총길이(km)": 0.9, "기점 위도(WGS84(4326))": 37.48033195, "기점 경도(WGS84(4326))": 127.0891633, "종점 위도(WGS84(4326))": 37.48401091, "종점 경도(WGS84(4326))": 127.0942829, "정북기준 도로방향 각도(x1)": -0.005119625, "정북기준 도로방향 각도(y1)": -0.003678954, "정북기준 도로방향 각도(기점 기준십진수 방위각)": 215.7009563 }, "geometry": { "type": "LineString", "coordinates": [ [ 127.0891633, 37.48033195 ], [ 127.0942829, 37.48401091 ] ] } },
{ "type": "Feature", "properties": { "구간번호": "70207-2", "관리청": "경수고속도로㈜", "도로분류": "위임도로", "대표지역": "서울특별시 강남구", "도로(노선)명": "용인서울선", "총길이(km)": 0.37, "기점 위도(WGS84(4326))": 37.46472222, "기점 경도(WGS84(4326))": 127.0927778, "종점 위도(WGS84(4326))": 37.46555556, "종점 경도(WGS84(4326))": 127.0913889, "정북기준 도로방향 각도(x1)": null, "정북기준 도로방향 각도(y1)": null, "정북기준 도로방향 각도(기점 기준십진수 방위각)": null }, "geometry": { "type": "LineString", "coordinates": [ [ 127.0927778, 37.46472222 ], [ 127.0913889, 37.46555556 ] ] } },
{ "type": "Feature", "properties": { "구간번호": "11680-26", "관리청": "서울특별시(강남구)", "도로분류": "구도", "대표지역": "서울특별시 강남구", "도로(노선)명": "자곡로", "총길이(km)": 0.9, "기점 위도(WGS84(4326))": 37.46677896, "기점 경도(WGS84(4326))": 127.0929669, "종점 위도(WGS84(4326))": 37.47412945, "종점 경도(WGS84(4326))": 127.0940865, "정북기준 도로방향 각도(x1)": -0.001119586, "정북기준 도로방향 각도(y1)": -0.007350495, "정북기준 도로방향 각도(기점 기준십진수 방위각)": 261.3395925 }, "geometry": { "type": "LineString", "coordinates": [ [ 127.0929669, 37.46677896 ], [ 127.0940865, 37.47412945 ] ] } },
{ "type": "Feature", "properties": { "구간번호": "11001-26", "관리청": "서울특별시(시설공단)", "도로분류": "시도", "대표지역": "서울특별시 강남구", "도로(노선)명": "동부간선도로", "총길이(km)": 0.6, "기점 위도(WGS84(4326))": 37.48416256, "기점 경도(WGS84(4326))": 127.109912, "종점 위도(WGS84(4326))": 37.47088633, "종점 경도(WGS84(4326))": 127.1231639, "정북기준 도로방향 각도(x1)": -0.013251971, "정북기준 도로방향 각도(y1)": 0.013276236, "정북기준 도로방향 각도(기점 기준십진수 방위각)": 134.9475916 }, "geometry": { "type": "LineString", "coordinates": [ [ 127.109912, 37.48416256 ], [ 127.1231639, 37.47088633 ] ] } }
]
}
